{"type": "FeatureCollection", "features": [{"type": "Feature", "geometry": {"coordinates": [[[1.9330831064121077, 47.85268889580479], [1.9330787532765579, 47.85268292907259], [1.9331297583700033, 47.85267349212581], [1.933302178813507, 47.85267776067645], [1.933620423111571, 47.85274545961989], [1.9338824978396711, 47.85281354699061], [1.9339970477817914, 47.85283618957972], [1.9342360479977045, 47.85285456229054], [1.9348492668390682, 47.852816928506854], [1.9353347263310552, 47.85274842897074], [1.9358525794694668, 47.85266492086049], [1.9361160427041728, 47.8526637099269], [1.9363196826304256, 47.85264485514685], [1.936385843932909, 47.85261305278023], [1.9367952829248654, 47.85220003010134], [1.937068771923782, 47.85196488897633], [1.9371671897742897, 47.851791167122855], [1.9372689408552128, 47.85151756674919], [1.9373120790058398, 47.851433349845486], [1.9373978324629286, 47.851291014932265], [1.9374429241489528, 47.85124282025014], [1.937487638173156, 47.85121352231195], [1.9375484495582618, 47.85118167056039], [1.9381220520740627, 47.85105095331827], [1.9388015966089607, 47.85090498985136], [1.9388873961798967, 47.85089406556714], [1.939117972740889, 47.85093215351951], [1.9392395117227752, 47.85093955353082], [1.9396168057942518, 47.8509294632907], [1.9397995573053706, 47.85095181757546], [1.9399350843721332, 47.85099534506364], [1.9400557442816417, 47.85104683966705], [1.9401878435194693, 47.851128140137995], [1.9402755636832816, 47.851155034895434], [1.9404009334869903, 47.85117146812024], [1.9405091926182565, 47.85117424621418], [1.94077951198003, 47.85102997558746], [1.9412173028058022, 47.85060099262916], [1.9413160117932087, 47.85054607868595], [1.9413779963226074, 47.85052233613705], [1.9415810052729479, 47.850467463938074], [1.9417048126807273, 47.850428077395385], [1.9418922978063993, 47.85034696192945], [1.9421177360649624, 47.850240086654566], [1.9423420520068218, 47.85012239979294], [1.9425655675742752, 47.84997770269581], [1.9428023780182404, 47.84983672515653], [1.9430505059575085, 47.84973185299949], [1.9432407257873867, 47.84971466486796], [1.943401946442337, 47.8496765140617], [1.9437105197535476, 47.84955778297612], [1.9437008440625245, 47.84950639203764], [1.9436825241507303, 47.849418919956754], [1.9436055017510216, 47.84912300189028], [1.9435956559965577, 47.84894559901075], [1.943570545946561, 47.84886346601207], [1.9434808974486724, 47.8486646420316], [1.9434038434971344, 47.84857214024503], [1.9433131891713709, 47.848491216845495], [1.9431216112518033, 47.8483751822222], [1.9430351950925404, 47.848350101620866], [1.9427386997660425, 47.84819801682204], [1.9426616138343655, 47.84810731419819], [1.9421458378287184, 47.847551818048764], [1.9420895158209877, 47.84749280603654], [1.9417627027671105, 47.84705062078264], [1.941625448373948, 47.84689276928733], [1.9413208782722942, 47.846542591816984], [1.9409792118731324, 47.84624248255047], [1.9411743638165913, 47.846178538625026], [1.941457557221294, 47.84605778446087], [1.9420665117556337, 47.84575995302428], [1.9422745689244485, 47.8456520201568], [1.9428813418598951, 47.84532896276291], [1.9438826780002951, 47.844797037607236], [1.9440083604230318, 47.84472976401208], [1.9447008641477879, 47.844397567503975], [1.9453232703445205, 47.844161045966594], [1.9458918259540592, 47.84394293826946], [1.9460704235207336, 47.84383653372651], [1.946221199044957, 47.84371727842528], [1.9463738972216411, 47.84363584292519], [1.946584665009121, 47.84352522687733], [1.9466993790511726, 47.84347135248968], [1.9469635135963792, 47.84255654592995], [1.9472626972308718, 47.84142423531554], [1.9474038540144216, 47.840844952072594], [1.947723334606232, 47.83942929590145], [1.9480406208208938, 47.837853404893345], [1.9482638443137494, 47.8363009698055], [1.9484922679104808, 47.83434984387316], [1.948557756786175, 47.833539458148906], [1.9486429017135676, 47.83214059538707], [1.948681644598261, 47.830924931568454], [1.9486820365790782, 47.830296677067885], [1.9486741161180785, 47.82995367462927], [1.9486297875200829, 47.82813960887608], [1.9486213161121633, 47.82782450327965], [1.94861334176773, 47.82748419975732], [1.9485674051009105, 47.82676552117298], [1.9483860795186836, 47.8247153004166], [1.948311587623051, 47.8240215660957], [1.9480655451817557, 47.82260892292912], [1.9479323909297122, 47.821840854099406], [1.9477667944100552, 47.82088887563453], [1.947637584848956, 47.82012444155648], [1.9476140143767249, 47.82003242106276], [1.9471105365157557, 47.81981187898155], [1.946718251452802, 47.819645439040826], [1.9456415508064078, 47.819218119140956], [1.9449905420274938, 47.81895753711165], [1.944584376530366, 47.818750460715364], [1.9430135279209115, 47.81790552529371], [1.9426685892916513, 47.81771159553805], [1.9424323741743712, 47.81756094972623], [1.9422809917202157, 47.817445272773426], [1.941964572021269, 47.81716158875563], [1.9416426735398615, 47.8168175485912], [1.9415239245392748, 47.81660675584205], [1.941309688425629, 47.816090869037865], [1.9411503631618563, 47.81570329079785], [1.941137611752927, 47.8156725721159], [1.9410165087471014, 47.815378948490704], [1.9407414758639605, 47.81476260074677], [1.9405386890670009, 47.814410632555315], [1.9405231944132866, 47.8143834901785], [1.9404271321605038, 47.8143088139117], [1.9403968869858645, 47.814284238090934], [1.9403292865172297, 47.814256624068875], [1.9402259545720408, 47.81421158509748], [1.9398310867757733, 47.814110805110076], [1.938711077065101, 47.81385314438911], [1.9377161083336634, 47.81362450926781], [1.937670881629654, 47.81361419807832], [1.9366107437983766, 47.813370561898765], [1.9363418396746024, 47.813319516416556], [1.936169779964835, 47.81330355416875], [1.9360937346407652, 47.81329746350511], [1.9359039842064294, 47.81329754082398], [1.935728712998693, 47.813308551520976], [1.934858839571619, 47.81337355722788], [1.9340464665709924, 47.81343638066918], [1.9328887845470382, 47.81352665740785], [1.931256047478695, 47.81365039694964], [1.9310593259560993, 47.813664804692856], [1.9297692747119621, 47.81375834461458], [1.929581941292472, 47.81377103582188], [1.9287524895949064, 47.81388497133097], [1.9285877773360391, 47.81390236768371], [1.9282231790306725, 47.81395844101916], [1.928121471020843, 47.81423113973881], [1.9280717589368412, 47.81431079321409], [1.9277331116614504, 47.815001669253604], [1.9274136565612516, 47.81560180965816], [1.9271416731763726, 47.81610067251218], [1.9264685643916593, 47.817338439159776], [1.9255221122592707, 47.81907324743256], [1.9245755782556924, 47.820808946891255], [1.9245561251940144, 47.820845671635745], [1.9240078559556832, 47.821852343966604], [1.9234568572630777, 47.82286078807339], [1.9229072100048157, 47.82386744053009], [1.9222144846758524, 47.82514010314539], [1.9212132043552892, 47.82692837212106], [1.9210938398119366, 47.82714599543223], [1.9192951842598927, 47.83041295285848], [1.9182940208424812, 47.83021470286356], [1.91799991300477, 47.8301507832551], [1.9173550197477387, 47.829983715369444], [1.9171129057602618, 47.82992657386303], [1.9166103563515369, 47.829793219133144], [1.9163050685183527, 47.82968778766317], [1.9161803058540017, 47.82964433059339], [1.9158782790234195, 47.82951012623065], [1.9145707713156004, 47.83168254289749], [1.9180387464706614, 47.8324463638033], [1.917638975973104, 47.83323835034607], [1.917814735974643, 47.83327237564423], [1.917570568599324, 47.83364365825789], [1.9172389496043425, 47.8342391538708], [1.915650290398898, 47.8371497510695], [1.9153462247268684, 47.837703191216356], [1.9152587480755086, 47.837862596975], [1.9156911534299088, 47.83796470440247], [1.9192300464456185, 47.83854912273623], [1.919577137803796, 47.838573922600744], [1.9211412146927236, 47.83877643830557], [1.9212001754453383, 47.83916491649423], [1.9210048911833995, 47.83910371459292], [1.921055252102076, 47.83998175775847], [1.9220451505666682, 47.839426509019006], [1.9224724652211755, 47.8391874144149], [1.922787829117034, 47.83965655379175], [1.9233162925281846, 47.84043007635472], [1.9235357717485309, 47.84028717725033], [1.9237329005567252, 47.840587814058594], [1.923330206565961, 47.84079923739204], [1.9233000698581617, 47.84083496371335], [1.9235696430127105, 47.841189370353526], [1.9237938809427182, 47.841537959276415], [1.924139214250274, 47.84204697235385], [1.924578514956868, 47.84273596250556], [1.9246246530594147, 47.842834494707745], [1.9246857961703963, 47.84298446790871], [1.923831066054891, 47.84326735408448], [1.9233693994374108, 47.84341883103177], [1.9230221407044488, 47.84353265405916], [1.92255689780055, 47.84366249247041], [1.9225613558353354, 47.84377234363477], [1.9225685432556332, 47.84387951914395], [1.9226909674233705, 47.84397425143326], [1.9228469946017759, 47.84406029252132], [1.923408397874267, 47.84433187016732], [1.9242922305581962, 47.84472611351679], [1.924686867209524, 47.84491424792006], [1.924756337038162, 47.84485097949404], [1.9249523843985998, 47.84480957266696], [1.925068841944503, 47.844869145217466], [1.9257168861910399, 47.84515500690869], [1.9259991553545541, 47.84528000233122], [1.927029684230602, 47.8457610753676], [1.9271752296421214, 47.845837112737215], [1.9275093632457532, 47.846042686471016], [1.92763572070035, 47.846141949667825], [1.9277797301465787, 47.84622787404029], [1.9283662030013589, 47.846717475202745], [1.928502315417587, 47.846863631026224], [1.928528054844889, 47.84691337101702], [1.9287179827824699, 47.84710952202231], [1.929187978051288, 47.847673661834136], [1.9297353385787177, 47.84831411119185], [1.9298559425869748, 47.84843402103381], [1.9299677482352249, 47.84852594921459], [1.9300411660364254, 47.84859862465543], [1.9304062243201174, 47.84912939876086], [1.9307177464052299, 47.84953007196638], [1.9308367094848167, 47.84966526840903], [1.9309639816446318, 47.84985274363629], [1.9310266340713917, 47.84992892058547], [1.9311291586557313, 47.85008376760103], [1.9311803058112322, 47.85006713292675], [1.9317795636120907, 47.85085565666081], [1.9320188200207888, 47.851193562911895], [1.9322141948619027, 47.85145276247071], [1.9324238269083678, 47.85173459391041], [1.9324551196178612, 47.851774481632056], [1.9324762396783364, 47.85178817521451], [1.932555067254847, 47.85185819803417], [1.9321296309386018, 47.85200103844132], [1.9318228978679044, 47.85209275337458], [1.9318175133556834, 47.852094504041126], [1.9318211781402603, 47.85224484992539], [1.9318228174752188, 47.852429380209614], [1.9318280157872332, 47.8527030496283], [1.93183194802347, 47.85297310726164], [1.9318337539678492, 47.853016327312716], [1.9318341323875197, 47.853064035359296], [1.9318347795378397, 47.853151341056574], [1.9318429039961291, 47.853146795876185], [1.9324787835885053, 47.85290365630697], [1.9330831064121077, 47.85268889580479]]], "type": "Polygon"}, "properties": {"nom": "LA SOURCE", "libelle": "La Source", "adresse": "4 Place Choiseul 45100 ORLEANS", "telephone": "02.38.68.44.00", "geo_point_quartier": {"lon": 1.9342918149066524, "lat": 47.83227208506637}, "nom_commune": "Orléans", "code_commune": "45234"}}, {"type": "Feature", "geometry": {"coordinates": [[[1.9375263458855463, 47.90115709488794], [1.936645911486653, 47.90087892390193], [1.934190094441241, 47.90052372994697], [1.9316067435106168, 47.90014070879828], [1.92728618995261, 47.899470286315825], [1.923673521756434, 47.89890956845211], [1.9206802726737406, 47.89844489482232], [1.919401127954003, 47.901884091563446], [1.9184688032131545, 47.90439050399123], [1.9184396417626335, 47.905179216278455], [1.9179360446384557, 47.906616612617604], [1.9176897962825432, 47.90725154431324], [1.9170455013953145, 47.90885783162723], [1.9164707669323, 47.91038764631012], [1.9162634033329438, 47.9109703446089], [1.916052068003605, 47.91148272952341], [1.9157388985208796, 47.91214421201383], [1.915747006708786, 47.9121729983153], [1.915823658760739, 47.912304672320644], [1.9158169254384325, 47.91235669636655], [1.9161684567235893, 47.91315294176212], [1.9165259092984102, 47.91397835624502], [1.9168274664252314, 47.91470534665872], [1.9170940673956656, 47.915424735074815], [1.9171586624814454, 47.91565463063863], [1.917294682865337, 47.91618999320266], [1.9174765013795347, 47.917247279709656], [1.918094237500385, 47.91923171538912], [1.9178976711455449, 47.91936240390311], [1.9179384558194568, 47.91951252728131], [1.9181409740325923, 47.91951943839131], [1.9182845073754113, 47.9195720622421], [1.9184722174417905, 47.91969079562831], [1.9194264275403257, 47.92037100754261], [1.921265553807886, 47.921257349323334], [1.9217777393973892, 47.92155276406891], [1.921990534819785, 47.92168972254641], [1.9224320500170076, 47.92197098597234], [1.9232874158567816, 47.92251165091818], [1.923426234239977, 47.92259932736227], [1.9239343365638326, 47.922899195120586], [1.9241898573927354, 47.92304284157554], [1.925314309888258, 47.923654358553], [1.9257230067998181, 47.92390470643686], [1.9266208243497633, 47.9244682361966], [1.927486838744568, 47.92501616744634], [1.9278809203387355, 47.925261873957744], [1.9281648821836186, 47.92545707303699], [1.9291599877185457, 47.92617897536428], [1.9296524419361578, 47.92666048184089], [1.9308424887083728, 47.92787826354018], [1.9315014079386232, 47.92860698538462], [1.9320169016857525, 47.92914359149033], [1.9325702228122124, 47.92966433847752], [1.9338962014939212, 47.93085542011174], [1.9339525122408276, 47.930918933158544], [1.9344737315897136, 47.93137277710156], [1.9346465390354062, 47.93150394887033], [1.9349093504533372, 47.9316881379051], [1.9353084207549929, 47.93195636414947], [1.9353692021348858, 47.931997416176436], [1.9354459438504183, 47.932044013473536], [1.9355306480455028, 47.93209428183086], [1.9355346113797955, 47.93209701810184], [1.9355783110494857, 47.93212171454337], [1.9356152441274572, 47.93214995080669], [1.935685164227946, 47.93220278586067], [1.935730059799163, 47.93223469318726], [1.9358184560305147, 47.93230119613803], [1.93600643466141, 47.932477504672114], [1.9361546234839537, 47.93263455192964], [1.9362722857768007, 47.932777822054526], [1.9364014221964372, 47.93294999692434], [1.936715473735665, 47.93338485319376], [1.936827602748709, 47.933537073022435], [1.93750767191013, 47.93328401648949], [1.9376653855387134, 47.93323324044968], [1.9380696547612961, 47.93310909088823], [1.9386043676508458, 47.932958217376594], [1.9389840444514874, 47.93285814330711], [1.9394689379827958, 47.93272031686242], [1.9399158861478552, 47.93260464669649], [1.942222858533134, 47.931962117705474], [1.9424017359051307, 47.93192412649738], [1.9431167067626947, 47.93179915603444], [1.9435093626048097, 47.9317189844684], [1.9436180363720033, 47.93170916124075], [1.9437506156315407, 47.93170945286103], [1.9435315590923288, 47.93114226527943], [1.943432133975409, 47.93088936232817], [1.9432545015307945, 47.93032704607913], [1.9432243511071743, 47.93029437442907], [1.9430313800844203, 47.92983002283236], [1.9428933823848418, 47.92956417225801], [1.9428105746823903, 47.9294185217065], [1.9427458563570206, 47.929238833164696], [1.9427207509659903, 47.929087402352835], [1.9427272011004384, 47.92903255804947], [1.942802395980995, 47.92902243515146], [1.9430437270337486, 47.92900840550848], [1.9432861995904087, 47.92900428700833], [1.9433814621630707, 47.928995242733286], [1.9434301470054296, 47.928971380468006], [1.9434431288201812, 47.92892469566744], [1.943432655851617, 47.92884539822984], [1.9433802182386393, 47.92865412026771], [1.9433744962890231, 47.92853796423851], [1.9433885673242468, 47.92850389010061], [1.9434268495706544, 47.92839713021729], [1.9434985338389175, 47.928294271602546], [1.9436241245286974, 47.92803979247285], [1.9437675489361057, 47.92776387159907], [1.943829217730541, 47.927625821766874], [1.9439078990912633, 47.92723861550016], [1.9440492846591417, 47.92666116537486], [1.9437375945770374, 47.925837533818566], [1.9436243877189863, 47.92520109310915], [1.943614751657959, 47.92514700460979], [1.9435063303812887, 47.924539407156196], [1.9435042677335514, 47.92417217522794], [1.9435045054622961, 47.92409297369166], [1.9435012829119604, 47.92371673124327], [1.943502484091404, 47.92365643952811], [1.94350136406916, 47.923578126809296], [1.943500639674364, 47.923480016350545], [1.9435728565109924, 47.9225428301243], [1.9435404543233183, 47.92208532139918], [1.9435598826895575, 47.92198379212848], [1.9434959811611443, 47.92169610631258], [1.9434025748070085, 47.92141085531919], [1.9433372131858455, 47.920860345145236], [1.9433141293303275, 47.920674730878495], [1.9432623609489759, 47.920248547782506], [1.9432966854897342, 47.920004047465795], [1.9432982933393204, 47.91999056120685], [1.9433046329785122, 47.91994111568305], [1.9433123485658441, 47.91988988377254], [1.9433907598247633, 47.91965027917776], [1.943263358332875, 47.919324220508926], [1.943226453499734, 47.91922758375938], [1.9431296408389491, 47.9189792033963], [1.942999743675058, 47.918644120654704], [1.9428175437151245, 47.91817896180478], [1.9426290127113925, 47.91769574548967], [1.9424991403717498, 47.91735976185426], [1.9422621489959844, 47.91675550302661], [1.9415653715020842, 47.91671682509498], [1.9412190083389516, 47.9166966023574], [1.9408512091419303, 47.91667708552543], [1.940335704326443, 47.91661213286185], [1.940081034184554, 47.91655943341177], [1.9396325610303722, 47.916423079583055], [1.9393971368757963, 47.9163453507397], [1.9391646048206903, 47.91625684746631], [1.9391198841044217, 47.91621684172142], [1.939078325844822, 47.91615256343071], [1.9390208327584015, 47.91594773498052], [1.938935768702518, 47.915715657301746], [1.9388657652017929, 47.91540001104784], [1.9389093050889947, 47.91523119734462], [1.9389826428888466, 47.9151121543418], [1.9390904234205926, 47.91501142330404], [1.9393037529963695, 47.91492154627112], [1.939446954477327, 47.91485713644731], [1.9394867271768246, 47.914809793932484], [1.939504119532052, 47.91474334794383], [1.939488426412021, 47.91465770218846], [1.9393825298358431, 47.9144632377165], [1.9391649340849761, 47.914096756586346], [1.9391324867088586, 47.91397855818173], [1.9390950918059808, 47.91377301158285], [1.9390755053547157, 47.91348032101393], [1.939031525987977, 47.91326931445554], [1.9389766317011634, 47.91313561263142], [1.9387605979164813, 47.91275834433725], [1.9386452659162203, 47.912567393478454], [1.938500936813916, 47.91235367943009], [1.9384199581363368, 47.91218554006028], [1.9383947532107404, 47.91210700860675], [1.9383207122584545, 47.91185972764013], [1.9382473366935333, 47.9113784426548], [1.9382307494881332, 47.911002975666804], [1.9382468457002224, 47.91080061175181], [1.9382577572098674, 47.910656703708035], [1.938345612395638, 47.910346983668724], [1.9383589048859848, 47.91015089410123], [1.9383557394497064, 47.909974457188795], [1.9383441590264463, 47.90975024186996], [1.9383153439689926, 47.90918295468671], [1.9382781232926916, 47.90883520187747], [1.9382838642302502, 47.90854814082597], [1.9382757477624504, 47.90841846078577], [1.9382716724407163, 47.908354521039875], [1.9382768921994935, 47.90809355602802], [1.9382818407790008, 47.90784608870562], [1.938279240850424, 47.9077083585272], [1.9382685813265204, 47.90763895880074], [1.938228621341243, 47.90756209417046], [1.9380183000033107, 47.90723527591468], [1.9379435898401933, 47.90708879367374], [1.9379094341769616, 47.90698947992865], [1.9378963672888811, 47.90690655764145], [1.9379035754682272, 47.9068139183917], [1.9373041290462587, 47.906600585025465], [1.9366680928314677, 47.90627621149983], [1.9365208324576626, 47.90621007469806], [1.9359544430054343, 47.906017735451904], [1.93583744383077, 47.905977973194155], [1.935362412499008, 47.90583596048908], [1.934067316260672, 47.90540299085747], [1.933258469613218, 47.90515353365787], [1.9330811592423929, 47.90511772126008], [1.9327745555935893, 47.90505463212417], [1.9326731130549821, 47.905040209183234], [1.9312890689722986, 47.90490521534168], [1.9305965446590452, 47.904796305405576], [1.930344743576851, 47.904737308221776], [1.9300824004029862, 47.90467011537905], [1.9299087457142516, 47.904652331867354], [1.929871199821326, 47.90465559037076], [1.9298105213547412, 47.9046775384891], [1.9297831424278613, 47.90464128709063], [1.9297615887827926, 47.904581687731884], [1.9297519921756814, 47.90446009331501], [1.9297418965461344, 47.90423048963451], [1.9297572738381774, 47.90386611145123], [1.929761075390209, 47.90381034331247], [1.929764100648781, 47.90372666611354], [1.9297557886473993, 47.903607784079675], [1.9297331764242032, 47.90340146766006], [1.9296695762725116, 47.90303726877826], [1.9296614689696743, 47.90284188486993], [1.9297387807186839, 47.90285788973547], [1.930686161172936, 47.903071732252755], [1.9315653501683896, 47.903282245382115], [1.9322552520304679, 47.90345412962512], [1.9326044362685089, 47.90352930795948], [1.9330240083121197, 47.903632126366425], [1.9333064065118974, 47.90370039503109], [1.9337092343623796, 47.90377065744346], [1.934125699041076, 47.90382844091734], [1.935314580407829, 47.9038824285585], [1.9357760786211191, 47.903897412328014], [1.9363793096203712, 47.9039199789456], [1.9363530215004094, 47.90376223276753], [1.936309881429924, 47.90364393586457], [1.936295021773667, 47.90345029179846], [1.9363446030986091, 47.903046620325526], [1.9363880914361709, 47.90294710880717], [1.9366658568600101, 47.90244469887236], [1.937182976962864, 47.90161953774134], [1.9372696453600502, 47.90150241569014], [1.9372930267556645, 47.90147112530466], [1.9373604377870435, 47.90137993099083], [1.9373962040832349, 47.90133165251522], [1.9375263458855463, 47.90115709488794]]], "type": "Polygon"}, "properties": {"nom": "BARRIERE ST MARC - ARGONNE - FAUBOURG BOURGOGNE", "libelle": "Est", "adresse": "1 place Mozart 45000 ORLEANS", "telephone": "02.38.68.43.03", "geo_point_quartier": {"lon": 1.9302342374880535, "lat": 47.915261832426516}, "nom_commune": "Orléans", "code_commune": "45234"}}, {"type": "Feature", "geometry": {"coordinates": [[[1.9179536598000702, 47.9196717500731], [1.9179432082463688, 47.919562299370426], [1.917924215561757, 47.9195120412044], [1.9179384558194568, 47.91951252728131], [1.9178976711455449, 47.91936240390311], [1.918094237500385, 47.91923171538912], [1.9174765013795347, 47.917247279709656], [1.917294682865337, 47.91618999320266], [1.9171586624814454, 47.91565463063863], [1.9170940673956656, 47.915424735074815], [1.9168274664252314, 47.91470534665872], [1.9165259092984102, 47.91397835624502], [1.9161684567235893, 47.91315294176212], [1.9158169254384325, 47.91235669636655], [1.915823658760739, 47.912304672320644], [1.915747006708786, 47.9121729983153], [1.9157388985208796, 47.91214421201383], [1.916052068003605, 47.91148272952341], [1.9162634033329438, 47.9109703446089], [1.9164707669323, 47.91038764631012], [1.9170455013953145, 47.90885783162723], [1.9176897962825432, 47.90725154431324], [1.9179360446384557, 47.906616612617604], [1.9184396417626335, 47.905179216278455], [1.9184688032131545, 47.90439050399123], [1.915762288209302, 47.90422970705583], [1.9147679881336275, 47.90427477047234], [1.9114917017783586, 47.90512284046435], [1.9074945578728517, 47.90608696506284], [1.9038330616425954, 47.90687384281785], [1.904124066939749, 47.90920874721177], [1.9043228680930464, 47.91066687653246], [1.9044114725810002, 47.91131672821869], [1.9045928481107823, 47.91264694552364], [1.9047230237527069, 47.91360160861027], [1.9047350073148064, 47.91372386786768], [1.9047491753163122, 47.914110059212035], [1.9047684809475434, 47.91463628043662], [1.9046928517890485, 47.91471910006373], [1.9045302757727414, 47.91487192956827], [1.9043336293784674, 47.91504301420144], [1.904070258817986, 47.915253422870705], [1.9038476879725705, 47.91542090095433], [1.9036225009189403, 47.915571749914115], [1.9034883458610385, 47.91565740226864], [1.903267259805324, 47.91578888040662], [1.9030884335893417, 47.91588484466836], [1.9029655877433407, 47.915947680747244], [1.9027655117999778, 47.91604715992544], [1.9025042084956703, 47.916177667112876], [1.9023242562055847, 47.91627100716572], [1.9021391469259397, 47.91637454422045], [1.9018295041463968, 47.91654701477216], [1.9016192734159612, 47.916640271578935], [1.9013854341758467, 47.9167280629254], [1.9012150153546197, 47.9167845800087], [1.9007872650497901, 47.91691345245035], [1.90046499115826, 47.91700535341402], [1.9002169380838887, 47.917068326367165], [1.899892852447097, 47.91713938942753], [1.8997162472636546, 47.917173459927575], [1.8995244916143839, 47.91720569543908], [1.89932190335052, 47.917234157441996], [1.8991426993463358, 47.91725654768936], [1.8989615187485467, 47.91727717447401], [1.8987224472787974, 47.91730051488629], [1.8985418529371383, 47.91731494881354], [1.8983555886270203, 47.917327187086336], [1.898174868179987, 47.91733564718292], [1.8980412831798212, 47.917339788769965], [1.8977095946253906, 47.917342158461445], [1.8973959543185335, 47.91733757276946], [1.8969118463067114, 47.91733050198005], [1.8967596553840134, 47.91733044576186], [1.8965210117644489, 47.91733199615926], [1.896200429256382, 47.917327851335195], [1.8959711016509695, 47.917313577393365], [1.8956877088798205, 47.91728148782811], [1.895402738882764, 47.91724072969156], [1.895070469795837, 47.91718580433975], [1.8948511676373327, 47.91714376868333], [1.8946236507373118, 47.917095848690856], [1.8944589649077288, 47.91705778124149], [1.8942741594447998, 47.91701073105541], [1.894135476077094, 47.91697275642635], [1.8940333531151368, 47.91694344507464], [1.8938668042274733, 47.9168936512803], [1.893786112943919, 47.916868607846304], [1.893667288108709, 47.91683082240122], [1.89354843687893, 47.9167918995574], [1.893429584489893, 47.91675297657726], [1.8933114504830448, 47.916713068211514], [1.8931512579386902, 47.9166585671386], [1.8930758155669372, 47.91663239186195], [1.8928416335333822, 47.91655026099678], [1.8926474439790122, 47.916480997851906], [1.8923750854782346, 47.91638258719798], [1.892142411236281, 47.91629800560144], [1.8920258981156657, 47.916255604527926], [1.8919097190158114, 47.91621348631862], [1.8917933303421988, 47.91617129040287], [1.8916765478167181, 47.91612931184745], [1.891443275170897, 47.91604591131738], [1.8913264118873987, 47.91600435620183], [1.890203797573666, 47.915608275334904], [1.8872107049365665, 47.91455131978478], [1.88557378419341, 47.91397348315575], [1.885427437990162, 47.91393890009893], [1.8853285071296797, 47.91436768755118], [1.8852548332964325, 47.914688304921654], [1.8852371638569758, 47.91476464100962], [1.8852360486045787, 47.914817733735184], [1.8852197971567033, 47.915209099630644], [1.8852131890212471, 47.91539624717595], [1.88519904860507, 47.91575073165027], [1.884958630593545, 47.916424384715334], [1.885072110731041, 47.91714099892465], [1.8850874336583092, 47.917240149664245], [1.8852921422275863, 47.91852195804116], [1.8857447049477085, 47.91845784874496], [1.8859463751361607, 47.91886478244985], [1.8860067238066784, 47.91898776117221], [1.886786093776808, 47.918982549237136], [1.8871490043606485, 47.91897968822441], [1.8873297823668629, 47.91897870048706], [1.88736871286621, 47.91935708785905], [1.8874175983562613, 47.91983547479416], [1.8875612807289806, 47.92122110373736], [1.8877151971498232, 47.92122436146583], [1.8879075399992375, 47.92124688375525], [1.8881089712446057, 47.921282992339414], [1.8880561200207628, 47.92163260907145], [1.8880437144278235, 47.921713495132416], [1.8880190139321225, 47.92212548184711], [1.8880105675949743, 47.922528620826895], [1.888001799284927, 47.922691445307564], [1.888005835567741, 47.9229461956392], [1.887985319599401, 47.92315841242125], [1.8879438374619957, 47.92341273129867], [1.887806601150393, 47.92376334849253], [1.8876363846412205, 47.92409025222204], [1.8873825931376784, 47.92450726875321], [1.8871226316318304, 47.924962927595445], [1.8869495976431931, 47.9252322009214], [1.8868612704779575, 47.92535737024962], [1.886721878374751, 47.925491055474666], [1.8862024909771926, 47.92592895215811], [1.885974710315349, 47.9261266017396], [1.8855528795004697, 47.92650961845549], [1.8852999550690013, 47.92675653043395], [1.8851834106897176, 47.92688593007691], [1.887141604614388, 47.92725101219341], [1.8878269597608048, 47.9273925087004], [1.8881014876478444, 47.92745631016278], [1.8889274719608826, 47.927789039812694], [1.8897050958389363, 47.928129406441926], [1.8899253027047211, 47.92822959115393], [1.890410753467058, 47.92851768984876], [1.8905124941199616, 47.92858345340778], [1.8907425310825203, 47.92872603152587], [1.8908347691919938, 47.928798005965945], [1.8910161362376623, 47.92896262474992], [1.891208990352498, 47.92915435393724], [1.8913842098974862, 47.92929281345628], [1.8914992495863514, 47.929363201432665], [1.891602634117811, 47.92941457915276], [1.8916924418309913, 47.929474829083894], [1.8917650861462378, 47.92952321641546], [1.8921515096297117, 47.92974466995884], [1.8922559147251259, 47.92981135718666], [1.8923401236760495, 47.9298832546261], [1.8924001563050188, 47.92995852391315], [1.892691617363741, 47.93043109135014], [1.8927602913778205, 47.93054154294724], [1.8930779006306304, 47.93104495679375], [1.8934415171849934, 47.93159020483811], [1.8942608500501816, 47.93288947175885], [1.8943526310790129, 47.932983938945696], [1.8944948200916354, 47.933037478912524], [1.894934442379279, 47.93237828831538], [1.8949859622650367, 47.932348171528545], [1.8950884944030588, 47.9323122340175], [1.895141596501302, 47.93227043211048], [1.8953402143085956, 47.931543269324976], [1.8954382432374948, 47.93114457459019], [1.8955644371417872, 47.93067954193594], [1.895673165217574, 47.93021704409801], [1.8958783124789975, 47.92923973118099], [1.8959192189518195, 47.929011506354286], [1.8960843021692158, 47.928157120566084], [1.8961273432679238, 47.927955016296785], [1.896228270283553, 47.927480744269296], [1.8963136362397697, 47.92711073004699], [1.896320929543277, 47.92708199699996], [1.8964050683862352, 47.926706570962104], [1.89647887925703, 47.92637694984449], [1.8965315126766926, 47.926164135124935], [1.89662739811595, 47.92580321992483], [1.8968240147385989, 47.92510573511059], [1.8969865245098825, 47.924567236559064], [1.8971102383528111, 47.92422008252767], [1.897349255247768, 47.92354369566923], [1.897408669443504, 47.92332644351508], [1.8975518515106435, 47.92275086103366], [1.8976498974199794, 47.92241426493458], [1.8978834280224017, 47.92142101014147], [1.897944519791955, 47.92112276941136], [1.8983411679176174, 47.921172391882], [1.8984267533713124, 47.921177695456166], [1.898613135331, 47.92116504248488], [1.8987580911266453, 47.92114840048535], [1.8990382404842872, 47.921133926036696], [1.8994710778830928, 47.92111728113323], [1.8999814686745868, 47.921105860868245], [1.9000606210496742, 47.92109850168147], [1.9015118224368557, 47.921046378946286], [1.902056238666582, 47.92100826670942], [1.9021901664043521, 47.921006818658505], [1.9022943635245744, 47.92101859246652], [1.9023145019797065, 47.920951277556505], [1.9027926316010741, 47.92088104084857], [1.9029603249912008, 47.92086550702352], [1.9031467972839693, 47.92084834717993], [1.903601088534509, 47.92083008743007], [1.9039583410282035, 47.92084242196715], [1.904264536624668, 47.920863279173965], [1.9045887135245532, 47.92092120545557], [1.9048857814230178, 47.92099507893908], [1.9052503825137663, 47.921105582308826], [1.9055379522160938, 47.92118566557973], [1.9056474873531586, 47.92119838680822], [1.9059376953077969, 47.921215490614884], [1.9061155971620152, 47.92122434787113], [1.9061637367664386, 47.921227495726654], [1.906195846586582, 47.92122869520764], [1.9062239234962963, 47.921230756655525], [1.9063991671534775, 47.921238688582314], [1.9064941057448896, 47.921244973051394], [1.9065823884462634, 47.92124939491089], [1.906692052861384, 47.921255816008994], [1.9067669667972815, 47.92125921254506], [1.9069796397929053, 47.92127019267486], [1.907180745760558, 47.92125766342273], [1.9076241253572446, 47.92124918675419], [1.9078077914369613, 47.92123829386682], [1.907968827182344, 47.9212208902469], [1.9081743381198402, 47.92118949922015], [1.9084699326745602, 47.92114004344861], [1.9087753960560936, 47.92106637891944], [1.909125759782454, 47.92095802813075], [1.9093430687569513, 47.920873642163066], [1.9097010098893175, 47.92072215782486], [1.9100125939000145, 47.92054594161664], [1.9103308781680308, 47.920304083346466], [1.9110713569852227, 47.91958461699671], [1.9112709237184917, 47.91964676988316], [1.911663761980752, 47.91968641250405], [1.9122145106329327, 47.91973021517875], [1.9125951537230426, 47.919776941516915], [1.9130217741049618, 47.91980159145295], [1.9147153124977012, 47.91987845403719], [1.9148257581518802, 47.919977578299765], [1.9149256501836138, 47.919937999328276], [1.9151056798107127, 47.919908161145514], [1.9153672037765133, 47.919887175769944], [1.9165563763314593, 47.919812646205685], [1.9171712238638405, 47.919799415265665], [1.9177107182346362, 47.919804387193196], [1.9178407373227426, 47.91979748499993], [1.9179085712254917, 47.91975400730804], [1.917918198533127, 47.919741495644715], [1.9179415434466882, 47.91971291006513], [1.9179536598000702, 47.9196717500731]]], "type": "Polygon"}, "properties": {"nom": "ACACIAS - BLOSSIERES - GARE", "libelle": "Nord", "adresse": "16 rue Charles Le Chauve 45000 ORLEANS", "telephone": "02.38.43.94.44", "geo_point_quartier": {"lon": 1.9027000529359628, "lat": 47.91702183764988}, "nom_commune": "Orléans", "code_commune": "45234"}}, {"type": "Feature", "geometry": {"coordinates": [[[1.9330831064121077, 47.85268889580479], [1.9324787835885053, 47.85290365630697], [1.9318429039961291, 47.853146795876185], [1.9318347795378397, 47.853151341056574], [1.9318352134623598, 47.85320985671868], [1.9319839082075554, 47.85339662545383], [1.9327889031817722, 47.854464237999615], [1.9318782885765227, 47.854859182762105], [1.931381634420465, 47.85508417816961], [1.9312680165365776, 47.85514794810686], [1.9312243433242289, 47.855191654145315], [1.9312537231041176, 47.85519372196605], [1.9313118671796239, 47.85522845425933], [1.9323325621306375, 47.85654375208886], [1.932566697389799, 47.85687170857948], [1.9327896690614024, 47.857156359162516], [1.929673227291863, 47.858104546505245], [1.9295924728952514, 47.85812991191747], [1.929389540115474, 47.858046153509534], [1.9291635490218606, 47.85797838622839], [1.929089085830078, 47.857957004230855], [1.9287770115663936, 47.857913652715844], [1.9283810366198826, 47.857919037062715], [1.9278376419336143, 47.85800587914098], [1.927222505509749, 47.858135267108224], [1.9267072155385168, 47.85828716649626], [1.9266168987638321, 47.85832234329108], [1.926078438649668, 47.8586279398657], [1.9259743859414242, 47.858680991726075], [1.9258396882692124, 47.85872836247725], [1.925422601410728, 47.85885145341258], [1.9252650619084268, 47.85890401456943], [1.925148881877655, 47.858961455019454], [1.9250566445642163, 47.85902541503289], [1.924973274248507, 47.85911375842963], [1.92487956203568, 47.85925061058422], [1.9247883942339874, 47.85939378604304], [1.924709078933073, 47.859546071713794], [1.9245378532753452, 47.86007644384334], [1.9245133076893393, 47.860231931395795], [1.924514672231011, 47.8606270745169], [1.9245396312380514, 47.86071551077137], [1.924624754935733, 47.8608711031488], [1.9247014286868223, 47.86098161383409], [1.9247347398146066, 47.86105392498022], [1.924737301393647, 47.86119165905749], [1.9246801919570349, 47.86123793967184], [1.924505642515909, 47.8612714425863], [1.923591376755964, 47.861375567225494], [1.9231720950583604, 47.861407722682245], [1.9230743855892194, 47.86141132617114], [1.922750776592836, 47.86140835547424], [1.9226282994661694, 47.86138022818802], [1.922549950234661, 47.86135250682532], [1.922472167124391, 47.86129688871889], [1.9222910933279704, 47.86105850668915], [1.9221631356458984, 47.86097092422988], [1.921854138010911, 47.86084117555282], [1.921794931414099, 47.860792927245484], [1.921772322577343, 47.86072071413715], [1.9218072866528033, 47.86064542945376], [1.9218792141195684, 47.860528180848], [1.921971417148433, 47.86040031859769], [1.9218410331696323, 47.86043242318372], [1.9210036975615634, 47.860634441341695], [1.9209825266225693, 47.86035972569304], [1.9208870707320498, 47.85992321290332], [1.9207077406346085, 47.85992876385487], [1.9205228616095207, 47.859944164407224], [1.9203942530258173, 47.859954681547514], [1.920222435450728, 47.85998550324494], [1.9197830694111617, 47.86008496672233], [1.9194368308770766, 47.860208688852886], [1.91937077669776, 47.860234182195946], [1.91922343066861, 47.86031113155371], [1.9190812115516112, 47.86039892812011], [1.918858304460828, 47.86057418843389], [1.9186877097801998, 47.86067612470068], [1.9184859560286895, 47.86079757539338], [1.918337599041035, 47.86085831241311], [1.9174852910087545, 47.86140039529588], [1.9172133890477754, 47.86161660356624], [1.9170799369387272, 47.86179898660318], [1.91683695694759, 47.86197405781709], [1.9166847096000394, 47.86209416180661], [1.916615647164289, 47.862135827720444], [1.9159714088050575, 47.8625079067997], [1.915299512418158, 47.862006658417805], [1.9151493635482535, 47.86189276125896], [1.9148938733276342, 47.861697783337355], [1.914221657954499, 47.86226040970644], [1.9130351195679551, 47.86331510733768], [1.9127912538211622, 47.86353246548279], [1.912859710881312, 47.8637167138577], [1.9130405694464907, 47.863767893214316], [1.9142070973182228, 47.864085618763845], [1.9144211517383445, 47.864148803699536], [1.9146077610420789, 47.864245937853916], [1.9147607741458241, 47.86435086103395], [1.914946903369854, 47.864537097053805], [1.9155936018002948, 47.86502911311483], [1.91570440884739, 47.86517054823382], [1.9157462418076434, 47.865349148177856], [1.9157235705460824, 47.86554245325521], [1.9156555963781308, 47.86572723995668], [1.9155115427133746, 47.8658384173797], [1.9152566356109484, 47.86594136853179], [1.914768846319461, 47.86605116728413], [1.9144044039416226, 47.866146803720966], [1.914189780817422, 47.86624202575629], [1.9138205763072014, 47.866505029257304], [1.9136899454796326, 47.866613627665544], [1.913663413115277, 47.86666828691865], [1.9136580948022397, 47.866732141856275], [1.9136606531533977, 47.86680327142622], [1.9136973942146893, 47.86690351949653], [1.9137997525788248, 47.86706557931622], [1.9138910326756928, 47.86718073257195], [1.9140053419175795, 47.86728169875699], [1.914180798386377, 47.867466936064005], [1.914261016869176, 47.86753428318878], [1.9144141397522585, 47.86776521755292], [1.9144066064829135, 47.8678065512468], [1.9143456741822622, 47.868039104887345], [1.9142782785235035, 47.86819509379625], [1.9141735475725798, 47.86834533607334], [1.9140018362907232, 47.86869657328955], [1.9139599233967, 47.86884919728746], [1.9139304935294261, 47.86937276455402], [1.9139347094295847, 47.869559116980064], [1.9139538276011323, 47.86967090271051], [1.9140064548788938, 47.86977939798876], [1.9141485573671073, 47.86996072627901], [1.9140273461738362, 47.86993530240285], [1.913096194446092, 47.86974486773082], [1.911985179244868, 47.86951945603201], [1.9120021070177473, 47.86967262461112], [1.9120695399005023, 47.870037776985704], [1.9121093817386545, 47.87024786222122], [1.9122801232685402, 47.87099020044005], [1.9124422259241896, 47.8716973552162], [1.9125282786344753, 47.872068080257485], [1.9124314819704518, 47.87209148516524], [1.9123266232061396, 47.87211661524569], [1.9121544652709301, 47.87216182277399], [1.9114147495030298, 47.87235477750131], [1.9113367507529955, 47.872374755614395], [1.91109465292177, 47.87243821441663], [1.9106599273860634, 47.87256648958302], [1.9104714963016973, 47.87262234520886], [1.9097590603883219, 47.87285424620847], [1.9089949112566904, 47.87299835515474], [1.9084930892809573, 47.873071094951435], [1.9083991491192016, 47.87308552196359], [1.9079375815806268, 47.873152333433126], [1.9078569041572138, 47.87317228366946], [1.9078054681217114, 47.873201507118594], [1.9080619075102907, 47.87432807656352], [1.9082227007561738, 47.875031624085686], [1.9083061219309367, 47.875333921521424], [1.9084129985237028, 47.875731844275364], [1.9084304483934587, 47.87579411137062], [1.9084276312006758, 47.87586609026899], [1.9083798729993373, 47.87591154979594], [1.9074906319396845, 47.87608598815976], [1.9074458063875275, 47.876118873563655], [1.9074807609985323, 47.876240707252784], [1.907556649071244, 47.87645382912594], [1.9077550821722742, 47.87695341189851], [1.907875272922523, 47.87728935482413], [1.906872813738331, 47.87750323753314], [1.9068685958819254, 47.87751309946975], [1.906766750887504, 47.87752115120664], [1.9064483950370716, 47.8775181855331], [1.9064638693505591, 47.87780634987919], [1.904975774576101, 47.87801839184866], [1.9047139510592748, 47.878063651783265], [1.9043258314010583, 47.87813473490501], [1.9042933013566727, 47.87815513315917], [1.9042826025868331, 47.878284642499], [1.9042640428993032, 47.87834117316112], [1.9042449451407573, 47.878358995812356], [1.904066443374017, 47.87838613088757], [1.9035919859994836, 47.87842670357356], [1.903536715303834, 47.87844688853444], [1.9035041099937087, 47.878470885822274], [1.9030664374638513, 47.87854420088599], [1.9027110292886509, 47.878585882477594], [1.9027364803319966, 47.87871392976515], [1.9019890423816737, 47.878821247313404], [1.9019413186267247, 47.87860568568749], [1.901608762429108, 47.878642176582616], [1.9015680736478329, 47.87866879807806], [1.9014748630591307, 47.878712028111465], [1.9012948173673945, 47.87874904627416], [1.9008087409732852, 47.878833600734104], [1.8993688805655213, 47.87903972362037], [1.8995522301597207, 47.87961838377601], [1.899641980171589, 47.87993604796236], [1.899665756093141, 47.88001547662043], [1.8994596954432779, 47.88001624509775], [1.8989523009624305, 47.88003128709066], [1.8978533917396196, 47.879988571098934], [1.8970742475065254, 47.87994615014577], [1.8969727887826677, 47.87993529572308], [1.8969647811302406, 47.879934320001816], [1.8967203955889596, 47.87991222154039], [1.8947611916139617, 47.879740777948236], [1.8941223604005992, 47.87970685852057], [1.8934252150700925, 47.87964628382976], [1.892947020002453, 47.87960847201701], [1.8921621958972226, 47.879582165315185], [1.8918144938909345, 47.87957438217137], [1.8917608695050192, 47.879515371543306], [1.8913446579403064, 47.87913611370744], [1.8912763771590297, 47.87907426420653], [1.8911245893302877, 47.87891081883888], [1.8910555540247784, 47.87882105978845], [1.890942841698596, 47.87864448201588], [1.8908466881909072, 47.87844375866719], [1.8907619368916004, 47.878273744548416], [1.8905792429584833, 47.87786068738336], [1.8904882214749974, 47.877734717963975], [1.8903689785030737, 47.87761478190771], [1.8901949498168629, 47.87749162729589], [1.889975356056476, 47.87756425622033], [1.8898308937459647, 47.877626794689284], [1.8895402193739241, 47.87777165584203], [1.8892727145307875, 47.87789603329945], [1.8889487457967475, 47.878033377483376], [1.888686608904687, 47.878156905194956], [1.8883824758776095, 47.87830523652109], [1.8879585927428442, 47.87854963879173], [1.8875217050570638, 47.87890372539505], [1.8872370830357834, 47.87907834078943], [1.8865987816006222, 47.8794665163886], [1.886398447079113, 47.8795771237296], [1.8862997972993198, 47.87962389138031], [1.8861567196996134, 47.87968373831751], [1.8860720310215335, 47.87970273574239], [1.8852978108647642, 47.879808793997476], [1.885270455515001, 47.87977343119385], [1.8844735292886496, 47.87987746843615], [1.8841017056411904, 47.879935138080555], [1.8834640544604282, 47.880036181878474], [1.8828735409205455, 47.880122369584356], [1.882614648102204, 47.880154108373645], [1.8819605868447333, 47.88020818401287], [1.8816927441849063, 47.8802200334797], [1.8814036513866046, 47.88022447852148], [1.8811268069579652, 47.88021914020642], [1.8809050719238884, 47.88020172505238], [1.880880379034818, 47.88029419665119], [1.8808071242169255, 47.880722829751235], [1.8806905036361796, 47.8812410560263], [1.8806815959502765, 47.88134627901092], [1.8806991779282183, 47.88146435528142], [1.8807350713595747, 47.881602407623284], [1.8807756783686889, 47.881707202950864], [1.8808713241631594, 47.88193043129092], [1.8808929009148614, 47.88204944517401], [1.8808877877707963, 47.88210160045547], [1.880874572498134, 47.88215727840282], [1.8808480377926597, 47.8822101294354], [1.8807440939081825, 47.88231714631781], [1.8807032970935385, 47.88234825990234], [1.8801776216194712, 47.88259436443239], [1.8798933159162914, 47.88275186283867], [1.8797818921096883, 47.88283270540287], [1.8796741590997197, 47.882928884338625], [1.8793058231868696, 47.883390702421785], [1.8788412329478081, 47.883974908375386], [1.8785585969378893, 47.88443304225231], [1.87835267091718, 47.88474339750225], [1.8784243232548377, 47.88477198379335], [1.8787501279268002, 47.884867803491204], [1.879652056804416, 47.885118532700496], [1.880397097657944, 47.885321855213036], [1.8807594476790677, 47.88539821630835], [1.882029726089278, 47.8856956411586], [1.8822281343369642, 47.88574163436198], [1.8828346894521903, 47.88585001571797], [1.8845921712128817, 47.88614214795486], [1.8858844252192923, 47.8863506345359], [1.8874632519635859, 47.88661312577186], [1.887563232933143, 47.886631174113255], [1.8874070531744587, 47.887571159106585], [1.8872241887279038, 47.8882516736069], [1.8871994826359875, 47.888345045807995], [1.8870018365399666, 47.889155926923166], [1.8868707652878023, 47.889791027358555], [1.8868312041755626, 47.89014617663502], [1.8866553476710726, 47.89100226661832], [1.886627223351473, 47.89132242123444], [1.8866183026825145, 47.89162025665453], [1.8865921006834228, 47.89191252783], [1.8865940774949213, 47.892009752745864], [1.886548378124546, 47.89201922001718], [1.8865406671120775, 47.89213165478169], [1.8864861892077212, 47.89275127894163], [1.8864623427177338, 47.892994968735394], [1.886371839378819, 47.893928371893736], [1.8863464472592508, 47.89418194790441], [1.8863418645906134, 47.894272810458176], [1.8863391108812833, 47.89432460466873], [1.891114385664774, 47.894607928500065], [1.89464251257997, 47.894817127109775], [1.8977970209537347, 47.89487576210475], [1.9025714370121063, 47.894964342373974], [1.9052694013663267, 47.89501430968128], [1.914621986512162, 47.89455107688563], [1.9151437875746604, 47.89434099671378], [1.9148394472634893, 47.894356961378485], [1.9143451232850022, 47.89379165771969], [1.9140563175411474, 47.89390959353785], [1.9138591586803808, 47.893995974936914], [1.9137368315982304, 47.89395704139819], [1.9137140670500876, 47.89395773060746], [1.9133231184667654, 47.89396581355442], [1.913319766919205, 47.893933380346354], [1.9133066019437819, 47.8937919494792], [1.913301071741398, 47.893735195437785], [1.9132901407644323, 47.89361538640089], [1.9132729237517374, 47.893475718886066], [1.9132564692065548, 47.893429663848345], [1.9130034821817161, 47.89277838169417], [1.9115871809205571, 47.89292906961698], [1.911598350072632, 47.892449443488495], [1.9115383196740057, 47.89204836289071], [1.9114435323869046, 47.89184137078972], [1.9114126743855318, 47.89177988107928], [1.9114050880547209, 47.891627701191624], [1.9114545092087671, 47.891436447825335], [1.9115614559518999, 47.890723694005196], [1.9115483988574127, 47.89064256816162], [1.9114955979600228, 47.89047646847113], [1.911524699340205, 47.89036243027771], [1.9116359685229065, 47.89022215371256], [1.9116904835990431, 47.890174055656146], [1.9118948636555595, 47.88999593855651], [1.9120659953964751, 47.8898076132712], [1.9121443595278622, 47.88970573293761], [1.91219378745775, 47.889579282232695], [1.9123192506801174, 47.889333829582746], [1.912445156360149, 47.88906677852207], [1.912582541823088, 47.888892540225626], [1.912681174919631, 47.888780946988234], [1.91271855333561, 47.888523876357155], [1.9127704212150278, 47.88834344551261], [1.9128297817257562, 47.88818918499495], [1.9129134269457986, 47.88802524903664], [1.912981182640081, 47.88785306555345], [1.9130285187778182, 47.88769779404976], [1.9130488578781002, 47.8875539731269], [1.9130507195412245, 47.88726687168695], [1.913034040309583, 47.88710110620308], [1.91285425808797, 47.88633979254134], [1.9128036436486664, 47.88613231000832], [1.9127468620609016, 47.885833864898544], [1.9126711372986056, 47.88515361861352], [1.9126636399364514, 47.88499693823229], [1.9126526520997749, 47.88474932067543], [1.9126813674997398, 47.88426175380326], [1.9126783366835332, 47.88414831805694], [1.9126588737194385, 47.883987927761524], [1.9125840557317848, 47.88359030778312], [1.9125638383205426, 47.88346681219009], [1.912475658291626, 47.882937659366014], [1.9124495802896788, 47.88277360715819], [1.9123927242868832, 47.88254446526556], [1.912365098833978, 47.8824560030238], [1.9123356389391497, 47.882391825383124], [1.9123134033089078, 47.8823016133961], [1.9123004463123974, 47.88215028284574], [1.9123143276791081, 47.88206040554343], [1.9123471043918379, 47.881962602699254], [1.9124825700000398, 47.881750543059994], [1.9131213514136218, 47.88191937152008], [1.913480738003236, 47.88201090476452], [1.9136900644388308, 47.882047044754266], [1.9138064299359212, 47.88204902117765], [1.9142697860357432, 47.882029006459035], [1.9150849834514942, 47.882077046828584], [1.915262849382637, 47.882081391357296], [1.9156686270500771, 47.88206353899287], [1.9157436139693136, 47.88206063141845], [1.916516540114902, 47.882016465278454], [1.916722736006463, 47.88200936785257], [1.917015684116083, 47.8820129713538], [1.9171827375051849, 47.88202261336798], [1.917541802682557, 47.88206462812815], [1.9180059443518915, 47.882137311518015], [1.918203602427898, 47.88215533505105], [1.9183599714746022, 47.88216397674482], [1.9183340229657841, 47.88205842978911], [1.918337285280043, 47.88196395392304], [1.918349654268655, 47.88188216207751], [1.918404777158244, 47.88167205664758], [1.9185413529801747, 47.881075674419655], [1.9186144503340254, 47.88077122733635], [1.918661598287017, 47.88062405216395], [1.918741878913428, 47.88042677841587], [1.9189980523194101, 47.879935904021785], [1.9190564146607383, 47.87982933450618], [1.919245628804359, 47.87947285265128], [1.9192757705937018, 47.879372323557206], [1.9193115327041665, 47.878995526449614], [1.9193559483849432, 47.87885102564482], [1.919418157362206, 47.87875259168932], [1.9195551452590376, 47.87859544179097], [1.920194545120743, 47.878009085739755], [1.9206586910204468, 47.87761912756268], [1.920710160307984, 47.87758809872083], [1.9209405200829506, 47.877444406679174], [1.9212113182130255, 47.87728578559932], [1.9216717009384638, 47.87701459664859], [1.9218165614051375, 47.87693042149037], [1.922137448874801, 47.87674255590968], [1.9224490429903318, 47.876551003894086], [1.9229395281965604, 47.87618018011916], [1.9230979793219718, 47.87608532763083], [1.9232520337906194, 47.876009335663724], [1.9233358223165216, 47.875967801371445], [1.9234787199971304, 47.875914208086336], [1.9235539710437757, 47.875897797661246], [1.9237219902955076, 47.87585883541624], [1.9240418876346372, 47.87578526353225], [1.9241403147301523, 47.87574746337513], [1.9242999911729823, 47.87565802069903], [1.9247055944367422, 47.87538181771751], [1.9249250511145666, 47.87524701900428], [1.9251387284263082, 47.87506716345163], [1.9252774918584783, 47.87495322577751], [1.9253730513468212, 47.874858694246946], [1.9255595012061657, 47.874701990421165], [1.925820753349413, 47.87448476662853], [1.92638681654151, 47.87401291325397], [1.926487922864915, 47.873908530646986], [1.9265889915374848, 47.873805947580905], [1.9266468951405158, 47.87372097158918], [1.926696538636681, 47.87364762031893], [1.926767806544239, 47.87349706161636], [1.927209203367542, 47.872573131070254], [1.9273475336020853, 47.87234758000698], [1.9274822789002448, 47.87216699833824], [1.927632092545995, 47.872035157919015], [1.9278343574229393, 47.87188939568969], [1.928141399856742, 47.87172208793332], [1.9288209970367305, 47.871388969428786], [1.9289603546712715, 47.87131103616597], [1.929016189083039, 47.87126204197388], [1.9290524877718267, 47.87118676769256], [1.9290474481845543, 47.87090590116056], [1.9288144196460044, 47.8709190761648], [1.9283290090169132, 47.8709101436656], [1.9283011461542712, 47.87083248388513], [1.928280836076239, 47.87077829449208], [1.927803319679864, 47.86971545612588], [1.9270273002558072, 47.867935232993595], [1.9277933296927872, 47.86782432617297], [1.928491296465903, 47.86770559219645], [1.928669821695533, 47.8676748197592], [1.929124846969946, 47.867597067999625], [1.9293966303629297, 47.867518541397885], [1.9297705473800724, 47.86735003998834], [1.92996026053454, 47.86729506627576], [1.9294899824995755, 47.86633760592629], [1.9291855491970573, 47.865647176950816], [1.9291250933854382, 47.86546121105828], [1.9293119473148184, 47.86534860782634], [1.9296458111828363, 47.86504293128424], [1.9297121740611154, 47.86500213281454], [1.9298383029517077, 47.86491597733412], [1.9301267723254236, 47.8648051990148], [1.9311188000088568, 47.86449471624556], [1.9311658962107952, 47.86448074410254], [1.9312159010920191, 47.86445509784856], [1.9322399933264285, 47.864145797858846], [1.9327675217917955, 47.86398588425983], [1.9330703113044079, 47.86389413137316], [1.9336362909113969, 47.86375076544097], [1.933965263639139, 47.863687149580905], [1.9341355137772815, 47.8636679947885], [1.9343723951607676, 47.863661145485445], [1.9346918258971564, 47.86367304696347], [1.9358960910122578, 47.86371547655833], [1.9359604978969693, 47.86370526051182], [1.93614014081959, 47.86361778265521], [1.9362768278334441, 47.863538015928775], [1.9363806281331009, 47.86349755316754], [1.936525612232253, 47.86347096573436], [1.9366405108672904, 47.863477407039106], [1.9367138988023227, 47.86348617327243], [1.9367911553977966, 47.86350217438179], [1.9368368706099426, 47.86342338244552], [1.9380134298659786, 47.86137198285696], [1.9393656836705508, 47.859023335152365], [1.9388348303773826, 47.85921925008108], [1.938683917002572, 47.85927548911558], [1.938134193702292, 47.85947843132613], [1.937099390237155, 47.85986149092142], [1.9370857861048174, 47.860140389545684], [1.9367460572590018, 47.86027502209195], [1.9365438196564457, 47.86035599518209], [1.9364656815294397, 47.86005016360843], [1.9363795127370163, 47.85961104892623], [1.9363562559793763, 47.85930301377862], [1.9362912177977967, 47.85894419657137], [1.936155921709438, 47.85882146076577], [1.9361728318808082, 47.858778410171006], [1.9361165271888128, 47.85878510067391], [1.9360686782837717, 47.85877026541562], [1.9360173750069711, 47.85872749699563], [1.9357346903651327, 47.85835140410586], [1.933943368907932, 47.85597875494384], [1.9346085479522126, 47.85575257877994], [1.9352158119659024, 47.85554657507824], [1.9331203985920042, 47.85274001242534], [1.9330831064121077, 47.85268889580479]]], "type": "Polygon"}, "properties": {"nom": "SAINT MARCEAU", "libelle": "Saint Marceau", "adresse": "57 Avenue de la Mouillère 45100 ORLEANS", "telephone": "02.38.56.54.68", "geo_point_quartier": {"lon": 1.9088153502998464, "lat": 47.87846813225855}, "nom_commune": "Orléans", "code_commune": "45234"}}, {"type": "Feature", "geometry": {"coordinates": [[[1.8765685334631892, 47.89748316151988], [1.876512367956842, 47.8976686884323], [1.8765012245494914, 47.89768928316737], [1.876325512595026, 47.89796031943987], [1.876204570585444, 47.89804646720191], [1.8760771712381776, 47.89818475667194], [1.8759717764703898, 47.898358359341586], [1.8758722529482739, 47.89857072064881], [1.8757471692247032, 47.8990420533126], [1.8761591188060533, 47.8991189017417], [1.8770962145248957, 47.899299778070464], [1.8771521903566928, 47.899311114592805], [1.8769133732709213, 47.900034276650636], [1.8766755226066048, 47.90071154386958], [1.8766585883727687, 47.90075278491236], [1.8765822118731257, 47.900946466041354], [1.8765365382125507, 47.90114404168296], [1.876488103165981, 47.90147209897698], [1.8770489208323533, 47.90153596778199], [1.877413152901598, 47.90159165362198], [1.8776665794278116, 47.90163367886262], [1.8784669249511377, 47.90170072911142], [1.8789536051586941, 47.90172607788378], [1.8789488109282944, 47.90176293483175], [1.878886349051503, 47.90231227246453], [1.8790231496200434, 47.902996720809824], [1.879103871999362, 47.90361132872201], [1.8792967354901942, 47.90360596920247], [1.8800324768579266, 47.9047065549244], [1.880259592208167, 47.90510834450737], [1.8807181119574334, 47.90577245553649], [1.880992230811198, 47.906167490710864], [1.8811903301185062, 47.90642229382695], [1.8814779615075343, 47.90674815243817], [1.881610197776128, 47.906888920239446], [1.8822033190750473, 47.9077739180513], [1.8824267270860169, 47.90784444852793], [1.8825102689222581, 47.907882145855865], [1.8825167904816833, 47.907890308005875], [1.8828197349026916, 47.90831621464696], [1.8831232844503967, 47.90877722828315], [1.8833980611868528, 47.90914256249166], [1.8835182954367666, 47.90934531640899], [1.8836338756602053, 47.90951472468906], [1.883884909091676, 47.90986363107886], [1.8839734065336868, 47.9099841784519], [1.884255871367395, 47.91030278023435], [1.884444410255231, 47.91050438242672], [1.8846175325472199, 47.91067523638223], [1.8848267711526614, 47.91091123627169], [1.8850631016419515, 47.91113219256216], [1.8854668682575855, 47.91154014731877], [1.8855736200527755, 47.91168426788769], [1.8856380874041514, 47.911801886200905], [1.885718275889576, 47.911999757893874], [1.8857258322682937, 47.912086234165336], [1.8857036308527335, 47.91237853969821], [1.885614249172212, 47.91332004237722], [1.8855970537509608, 47.91337388198426], [1.8855508636570606, 47.913405845393335], [1.8854831134850307, 47.913699518941364], [1.8854566006459543, 47.91381447281862], [1.8854374985811224, 47.91389529632628], [1.885427437990162, 47.91393890009893], [1.88557378419341, 47.91397348315575], [1.8872107049365665, 47.91455131978478], [1.890203797573666, 47.915608275334904], [1.8913264118873987, 47.91600435620183], [1.891443275170897, 47.91604591131738], [1.8916765478167181, 47.91612931184745], [1.8917933303421988, 47.91617129040287], [1.8919097190158114, 47.91621348631862], [1.8920258981156657, 47.916255604527926], [1.892142411236281, 47.91629800560144], [1.8923750854782346, 47.91638258719798], [1.8926474439790122, 47.916480997851906], [1.8928416335333822, 47.91655026099678], [1.8930758155669372, 47.91663239186195], [1.8931512579386902, 47.9166585671386], [1.8933114504830448, 47.916713068211514], [1.893429584489893, 47.91675297657726], [1.89354843687893, 47.9167918995574], [1.893667288108709, 47.91683082240122], [1.893786112943919, 47.916868607846304], [1.8938668042274733, 47.9168936512803], [1.8940333531151368, 47.91694344507464], [1.894135476077094, 47.91697275642635], [1.8942741594447998, 47.91701073105541], [1.8944589649077288, 47.91705778124149], [1.8946236507373118, 47.917095848690856], [1.8948511676373327, 47.91714376868333], [1.895070469795837, 47.91718580433975], [1.895402738882764, 47.91724072969156], [1.8956877088798205, 47.91728148782811], [1.8959711016509695, 47.917313577393365], [1.896200429256382, 47.917327851335195], [1.8965210117644489, 47.91733199615926], [1.8967596553840134, 47.91733044576186], [1.8969118463067114, 47.91733050198005], [1.8973959543185335, 47.91733757276946], [1.8977095946253906, 47.917342158461445], [1.8980412831798212, 47.917339788769965], [1.898174868179987, 47.91733564718292], [1.8983555886270203, 47.917327187086336], [1.8985418529371383, 47.91731494881354], [1.8987224472787974, 47.91730051488629], [1.8989615187485467, 47.91727717447401], [1.8991426993463358, 47.91725654768936], [1.89932190335052, 47.917234157441996], [1.8995244916143839, 47.91720569543908], [1.8997162472636546, 47.917173459927575], [1.899892852447097, 47.91713938942753], [1.9002169380838887, 47.917068326367165], [1.90046499115826, 47.91700535341402], [1.9007872650497901, 47.91691345245035], [1.9012150153546197, 47.9167845800087], [1.9013854341758467, 47.9167280629254], [1.9016192734159612, 47.916640271578935], [1.9018295041463968, 47.91654701477216], [1.9021391469259397, 47.91637454422045], [1.9023242562055847, 47.91627100716572], [1.9025042084956703, 47.916177667112876], [1.9027655117999778, 47.91604715992544], [1.9029655877433407, 47.915947680747244], [1.9030884335893417, 47.91588484466836], [1.903267259805324, 47.91578888040662], [1.9034883458610385, 47.91565740226864], [1.9036225009189403, 47.915571749914115], [1.9038476879725705, 47.91542090095433], [1.904070258817986, 47.915253422870705], [1.9043336293784674, 47.91504301420144], [1.9045302757727414, 47.91487192956827], [1.9046928517890485, 47.91471910006373], [1.9047684809475434, 47.91463628043662], [1.9047491753163122, 47.914110059212035], [1.9047350073148064, 47.91372386786768], [1.9047230237527069, 47.91360160861027], [1.9045928481107823, 47.91264694552364], [1.9044114725810002, 47.91131672821869], [1.9043228680930464, 47.91066687653246], [1.904124066939749, 47.90920874721177], [1.9038330616425954, 47.90687384281785], [1.9035267551935924, 47.90695833579672], [1.9027909147426612, 47.90715877009165], [1.9022704913552213, 47.907304698317546], [1.902065851741106, 47.90735826124787], [1.9019025978914943, 47.90738826362501], [1.9017122683034786, 47.90741142088696], [1.9016161222536923, 47.907414595489776], [1.9014463079744655, 47.9073968272525], [1.9013578078906008, 47.90736541380613], [1.901240521784409, 47.90729298875287], [1.9004573452675066, 47.9069038445704], [1.8996899628418196, 47.90652731950668], [1.8992268980278857, 47.9062825174069], [1.8988843682696137, 47.90608155335354], [1.8980947237576278, 47.90559513238418], [1.8970511035439632, 47.904990330868564], [1.896407576421871, 47.90462535894912], [1.8957849223538765, 47.90424344537549], [1.895108483541077, 47.903755076347245], [1.8945914025779855, 47.90332180119169], [1.8944367625843233, 47.903167527376965], [1.8940007559759395, 47.90263043152584], [1.8937795440063334, 47.90233220485534], [1.8936794824365328, 47.90215908491443], [1.893618354453101, 47.90199979326345], [1.8935829370849118, 47.90177900691197], [1.8935764524623475, 47.90155740952384], [1.8936403141326386, 47.901384244125495], [1.8937337716070552, 47.901132389852194], [1.8937860106076554, 47.900991611787006], [1.8940061790497065, 47.90057904694314], [1.8948217394820857, 47.89905073998702], [1.8953562133739061, 47.898049119742176], [1.895375460918575, 47.89755648449585], [1.8812031091937291, 47.897628489136856], [1.876803375106065, 47.897490262707315], [1.8765685334631892, 47.89748316151988]]], "type": "Polygon"}, "properties": {"nom": "DUNOIS MADELEINE", "libelle": "Ouest", "adresse": "99 rue du faubourg Madeleine 45000 ORLEANS", "telephone": "02.38.72.56.13", "geo_point_quartier": {"lon": 1.8911015524211154, "lat": 47.907172151638306}, "nom_commune": "Orléans", "code_commune": "45234"}}, {"type": "Feature", "geometry": {"coordinates": [[[1.9206802726737406, 47.89844489482232], [1.9127116553939751, 47.89759820744898], [1.895375460918575, 47.89755648449585], [1.8953562133739061, 47.898049119742176], [1.8948217394820857, 47.89905073998702], [1.8940061790497065, 47.90057904694314], [1.8937860106076554, 47.900991611787006], [1.8937337716070552, 47.901132389852194], [1.8936403141326386, 47.901384244125495], [1.8935764524623475, 47.90155740952384], [1.8935829370849118, 47.90177900691197], [1.893618354453101, 47.90199979326345], [1.8936794824365328, 47.90215908491443], [1.8937795440063334, 47.90233220485534], [1.8940007559759395, 47.90263043152584], [1.8944367625843233, 47.903167527376965], [1.8945914025779855, 47.90332180119169], [1.895108483541077, 47.903755076347245], [1.8957849223538765, 47.90424344537549], [1.896407576421871, 47.90462535894912], [1.8970511035439632, 47.904990330868564], [1.8980947237576278, 47.90559513238418], [1.8988843682696137, 47.90608155335354], [1.8992268980278857, 47.9062825174069], [1.8996899628418196, 47.90652731950668], [1.9004573452675066, 47.9069038445704], [1.901240521784409, 47.90729298875287], [1.9013578078906008, 47.90736541380613], [1.9014463079744655, 47.9073968272525], [1.9016161222536923, 47.907414595489776], [1.9017122683034786, 47.90741142088696], [1.9019025978914943, 47.90738826362501], [1.902065851741106, 47.90735826124787], [1.9022704913552213, 47.907304698317546], [1.9027909147426612, 47.90715877009165], [1.9035267551935924, 47.90695833579672], [1.9038330616425954, 47.90687384281785], [1.9074945578728517, 47.90608696506284], [1.9114917017783586, 47.90512284046435], [1.9147679881336275, 47.90427477047234], [1.915762288209302, 47.90422970705583], [1.9184688032131545, 47.90439050399123], [1.919401127954003, 47.901884091563446], [1.9206802726737406, 47.89844489482232]]], "type": "Polygon"}, "properties": {"nom": "CENTRE VILLE", "libelle": "Centre ville", "adresse": "5 place de la République 45000 ORLEANS", "telephone": "02.38.68.31.60", "geo_point_quartier": {"lon": 1.9064331068504226, "lat": 47.90164101508421}, "nom_commune": "Orléans", "code_commune": "45234"}}]}